satname,norad_id,inclination_deg,eccentricity,mean_motion_rev_per_day,perigee_km,apogee_km,l1,l2
STARLINK-1454,45671,53.0523,0.000731,15.4766552,418.5851737867506,428.5292507250688,1 45671U 20035Q   26052.68737620  .00073995  00000+0  14029-2 0  9997,2 45671  53.0523 129.5485 0007310 357.5708   2.5262 15.47665520316438
STARLINK-1456,45673,53.0481,0.0001427,15.48995647,418.69285252957707,420.63294462063095,1 45673U 20035S   26052.91668981  .00024914  00000+0  45955-3 0  9998,2 45673  53.0481 121.9589 0001427  89.1222 112.1480 15.48995647  5887
STARLINK-1457,45674,53.0467,0.0009617,15.74591776,339.32667762635174,352.2594847445034,1 45674U 20035T   26052.91668981  .00002743  00000+0  22687-4 0  9993,2 45674  53.0467 101.1645 0009617   7.5201 193.4597 15.74591776  6005
STARLINK-1458,45675,53.0524,0.0005311,15.40846456,439.9868164955051,447.23287599558716,1 45675U 20035U   26052.60421257  .00062403  00000+0  14950-2 0  9994,2 45675  53.0524 131.7573 0005311  20.4524 339.6692 15.40846456316373
STARLINK-1460,45676,53.0822,0.0001799,15.13539889,524.1729463116808,526.6568442836087,1 45676U 20035V   26052.91668981  .00007548  00000+0  43250-3 0  9991,2 45676  53.0822 137.2924 0001799  53.0907  54.4942 15.13539889  5834
STARLINK-1392,45677,53.0761,7.8e-06,15.1253588,528.4157002370494,528.5234432995676,1 45677U 20035W   26052.91668981  .00043446  00000+0  24664-2 0  9996,2 45677  53.0761 137.3745 0000078 283.7001  78.2719 15.12535880  5635
STARLINK-1394,45679,53.0494,0.000148,15.47288602,423.6549439324408,425.6685723648534,1 45679U 20035Y   26052.91668981  .00032744  00000+0  63753-3 0  9990,2 45679  53.0494 112.0654 0001480  84.1460 191.3011 15.47288602  5939
STARLINK-1402,45685,53.0488,0.0001487,15.42366502,438.11336569666673,440.1408200378846,1 45685U 20035AE  26052.53122993  .00063076  00000+0  14370-2 0  9995,2 45685  53.0488 100.1720 0001487 230.8016 129.2857 15.42366502316850
STARLINK-1404,45686,53.1588,0.0001408,15.30197047,474.25893334639386,476.1888397720495,1 45686U 20035AF  26052.62844014  .00000895  00000+0  42349-4 0  9990,2 45686  53.1588 124.3010 0001408  79.4128 280.7031 15.30197047316510
STARLINK-1413,45689,53.1615,0.0001506,15.3019551,474.1963589421239,476.26059262342915,1 45689U 20035AJ  26052.56942991 -.00000380  00000+0 -69713-6 0  9996,2 45689  53.1615 124.4550 0001506  79.7534 280.3636 15.30195510316427
STARLINK-1417,45693,53.0504,0.000326,15.11570696,529.1567995290925,533.6618237242737,1 45693U 20035AN  26052.60168957  .00024525  00000+0  14413-2 0  9996,2 45693  53.0504 127.1689 0003260 188.2619 171.8319 15.11570696316467
STARLINK-1420,45695,53.0539,0.0002997,15.48286438,419.7006868984254,423.7765323388312,1 45695U 20035AQ  26052.50786590  .00026691  00000+0  50388-3 0  9994,2 45695  53.0539 100.2183 0002997  45.1804 314.9447 15.48286438316843
STARLINK-1422,45696,53.1607,0.0001462,15.30193017,474.2339563570931,476.2378825987489,1 45696U 20035AR  26052.70743215  .00000181  00000+0  18233-4 0  9994,2 45696  53.1607 123.8142 0001462  85.7043 274.4125 15.30193017316527
STARLINK-1351,45697,53.0532,0.0001917,15.49615939,416.54593719354216,419.15151812152635,1 45697U 20035AS  26052.54208583  .00023316  00000+0  42143-3 0  9992,2 45697  53.0532  99.1847 0001917  62.2860 297.8342 15.49615939316862
STARLINK-1398,45699,53.0405,0.0005233,15.8573395,310.75677836435625,317.7610399228661,1 45699U 20035AU  26052.91668981  .00231912  00000+0  91161-3 0  9994,2 45699  53.0405  19.5558 0005233  70.9176 215.2172 15.85733950  5975
STARLINK-1400,45700,53.0514,0.0006399,15.47438057,419.87090086963144,428.5765621338069,1 45700U 20035AV  26052.75001870  .00069755  00000+0  13345-2 0  9998,2 45700  53.0514  99.3113 0006399  31.6820 328.4571 15.47438057316878
STARLINK-1403,45701,53.0553,0.0001394,15.06393239,546.2668830294533,548.1976759845793,1 45701U 20035AW  26052.55224493 -.00004968  00000+0 -31494-3 0  9998,2 45701  53.0553 109.0601 0001394  91.5260 268.5889 15.06393239316712
STARLINK-1407,45703,53.0367,0.0012031,15.56319267,390.1676364068717,406.47314818421273,1 45703U 20035AY  26052.21122209  .00017610  00000+0  25139-3 0  9990,2 45703  53.0367  35.7979 0012031  41.7039 318.4886 15.56319267317729
STARLINK-1411,45706,53.0454,0.0005329,15.58716552,387.76307288504086,394.97801402485493,1 45706U 20035BB  26052.35992475  .00087372  00000+0  11083-2 0  9992,2 45706  53.0454  61.0228 0005329  56.3319 303.8201 15.58716552317373
STARLINK-1423,45710,53.0523,0.0005552,15.49444611,414.576281055598,422.1230998766905,1 45710U 20035BF  26052.54694560  .00077699  00000+0  13839-2 0  9994,2 45710  53.0523  99.5933 0005552  39.9485 320.1931 15.49444611316840
STARLINK-1433,45711,53.0516,0.0006115,15.51586621,407.94086094879276,416.24531234476126,1 45711U 20035BG  26052.78647355  .00075381  00000+0  12449-2 0  9993,2 45711  53.0516  97.7227 0006115  36.8476 323.2952 15.51586621316894
STARLINK-1434,45712,53.0534,0.0003823,15.2500972,488.13026873574745,493.3822245121164,1 45712U 20035BH  26052.52042336  .00045961  00000+0  18193-2 0  9997,2 45712  53.0534  94.8219 0003823  26.9227 333.1968 15.25009720316923
STARLINK-1465,45731,53.0529,0.0003591,15.47455587,421.7296494458087,426.6150680272531,1 45731U 20038B   26052.70348231  .00135401  00000+0  25604-2 0  9998,2 45731  53.0529 299.6952 0003591 145.7962 214.3277 15.47455587313903
STARLINK-1471,45735,53.0469,0.0003185,15.47871145,420.7886761503105,425.12097164213355,1 45735U 20038F   26052.63870406  .00023337  00000+0  44820-3 0  9994,2 45735  53.0469 218.8624 0003185 160.7688 199.3439 15.47871145315041
STARLINK-1474,45738,53.0137,0.0009098,16.24648176,200.9705933500327,212.95283897396075,1 45738U 20038J   26052.65788142  .02033979  11962-4  69616-3 0  9993,2 45738  53.0137 143.4805 0009098 343.5007  16.5735 16.24648176316081
STARLINK-1480,45741,53.0525,0.0010147,15.4563991,422.59076427571927,436.4061797025752,1 45741U 20038M   26052.05983604  .00067331  00000+0  13696-2 0  9990,2 45741  53.0525 296.6548 0010147 122.8803 237.3181 15.45639910313904
STARLINK-1500,45744,53.0365,0.0003657,15.3378528,462.02856412796973,467.0332914503542,1 45744U 20038Q   26052.32720907  .00022859  00000+0  69890-3 0  9992,2 45744  53.0365 269.4442 0003657 166.1984 193.9118 15.33785280314300
STARLINK-1504,45746,53.0236,0.000306,15.51959731,408.92726304888856,413.0822177940254,1 45746U 20038S   26052.72220808  .00029181  00000+0  48319-3 0  9991,2 45746  53.0236 219.1482 0003060 145.8339 214.2867 15.51959731315034
STARLINK-1506,45747,53.0778,0.0003859,15.25645903,486.19662664000134,491.4965645790926,1 45747U 20038T   26052.67792436  .00007092  00000+0  28816-3 0  9994,2 45747  53.0778 276.3877 0003859 168.6632 191.4453 15.25645903314247
STARLINK-1464,45751,53.052,0.0004067,15.42279473,436.61086492799404,442.1562361438,1 45751U 20038X   26051.92055957  .00031795  00000+0  73393-3 0  9993,2 45751  53.0520 284.2391 0004067 153.9210 206.2000 15.42279473314064
STARLINK-1477,45754,53.0507,0.0002073,15.13313027,524.6735734906651,527.5360721504076,1 45754U 20038AA  26052.06154589  .00025939  00000+0  14512-2 0  9993,2 45754  53.0507 288.4750 0002073  83.3170 276.8058 15.13313027314016
STARLINK-1478,45755,53.0533,0.0006811,15.51682152,407.18974929624346,416.4390210731417,1 45755U 20038AB  26052.03222884  .00078430  00000+0  12898-2 0  9994,2 45755  53.0533 278.2017 0006811 144.7730 215.3730 15.51682152314146
STARLINK-1484,45756,53.0014,0.0006112,15.91424784,294.2143615024934,302.37563197530744,1 45756U 20038AC  26052.91668981  .00224487  29804-4  68937-3 0  9993,2 45756  53.0014 137.7538 0006112 355.3801 267.2721 15.91424784  6009
STARLINK-1493,45759,53.0531,0.0002117,15.44788686,430.55734148496504,433.440753087385,1 45759U 20038AF  26052.82050559  .00057752  00000+0  12141-2 0  9998,2 45759  53.0531 280.3606 0002117 157.1469 202.9631 15.44788686314185
STARLINK-1494,45760,53.0498,0.00019,15.70439019,356.3615862689212,358.9211820549026,1 45760U 20038AG  26052.73018648  .00074572  00000+0  59645-3 0  9993,2 45760  53.0498 230.7655 0001900 266.8030  93.2769 15.70439019314885
STARLINK-1502,45764,53.0531,0.0001419,15.44740425,431.174510274338,433.107267139153,1 45764U 20038AL  26052.65154782  .00021375  00000+0  45785-3 0  9991,2 45764  53.0531 282.5043 0001419  78.0043 282.1122 15.44740425314154
STARLINK-1470,45772,53.0444,0.0002539,15.26355341,484.97563046464256,488.46160414711085,1 45772U 20038AU  26052.70598966  .00013635  00000+0  52989-3 0  9996,2 45772  53.0444 248.4129 0002539 135.1351 224.9852 15.26355341314639
STARLINK-1482,45773,53.1592,0.0001469,15.30177724,474.27481515719046,476.2883495366841,1 45773U 20038AV  26052.91668981  .00019017  00000+0  65301-3 0  9997,2 45773  53.1592 264.2815 0001469  83.2333 147.6869 15.30177724  5826
STARLINK-1496,45780,53.0537,0.0007009,15.45135284,426.20808536418735,435.7531064101022,1 45780U 20038BC  26052.74455685  .00068493  00000+0  14184-2 0  9995,2 45780  53.0537 253.9314 0007009 142.2669 217.8829 15.45135284314544
STARLINK-1513,45786,53.1585,8.78e-05,15.30148188,474.7680371825345,475.9715129722381,1 45786U 20038BJ  26051.83930722  .00048567  00000+0  16438-2 0  9994,2 45786  53.1585 269.4121 0000878  92.4650 267.6451 15.30148188314269
STARLINK-1522,46027,53.0567,0.0001421,15.06396547,546.2380473722469,548.2062344400929,1 46027U 20055A   26052.77247029 -.00000466  00000+0 -12361-4 0  9998,2 46027  53.0567 198.0719 0001421  61.9522 298.1611 15.06396547306480
STARLINK-1523,46028,53.0572,0.0001473,15.06404046,546.1790555427551,548.2192595747729,1 46028U 20055B   26052.78721279  .00000037  00000+0  21347-4 0  9990,2 46028  53.0572 198.0083 0001473  87.4182 272.6976 15.06404046306501
STARLINK-1526,46029,53.0565,0.0001483,15.06401061,546.1812774190994,548.235334836897,1 46029U 20055C   26052.77984367 -.00002097  00000+0 -12190-3 0  9994,2 46029  53.0565 198.0364 0001483 114.9139 245.2005 15.06401061306496
